{"type": "FeatureCollection", "features": [ {"type": "Feature", "properties": {"norad_id": 34634, "name": "COSMOS 2251 DEB", "group": "cosmos-2251-debris", "lat": -18.5325096484803, "lon": 32.058650829941605, "alt_km": 742.1893430060818, "timestamp": "2025-12-11T08:58:27.520190+00:00", "meta": {"OBJECT_NAME": "COSMOS 2251 DEB", "OBJECT_ID": "1993-036XF", "EPOCH": "2025-12-10T13:58:03.498816", "MEAN_MOTION": 14.55648778, "ECCENTRICITY": 0.0044287, "INCLINATION": 74.0527, "RA_OF_ASC_NODE": 39.0577, "ARG_OF_PERICENTER": 147.0759, "MEAN_ANOMALY": 5.5093, "EPHEMERIS_TYPE": 0, "CLASSIFICATION_TYPE": "U", "NORAD_CAT_ID": 34634, "ELEMENT_SET_NO": 999, "REV_AT_EPOCH": 88750, "BSTAR": 0.00052246, "MEAN_MOTION_DOT": 2.283e-05, "MEAN_MOTION_DDOT": 0}, "tle": {"line1": "1 34634U 93036XF  25344.58198494  .00002283  00000+0  52246-3 0  9993", "line2": "2 34634  74.0527  39.0577 0044287 147.0759   5.5093 14.55648778887501"}}, "geometry": {"type": "Point", "coordinates": [32.058650829941605, -18.5325096484803]}}, {"type": "Feature", "properties": {"norad_id": 34635, "name": "COSMOS 2251 DEB", "group": "cosmos-2251-debris", "lat": 37.38334242555434, "lon": -119.27234654910814, "alt_km": 643.4946857681334, "timestamp": "2025-12-11T08:58:27.520206+00:00", "meta": {"OBJECT_NAME": "COSMOS 2251 DEB", "OBJECT_ID": "1993-036XG", "EPOCH": "2025-12-11T05:11:10.899168", "MEAN_MOTION": 14.68232518, "ECCENTRICITY": 0.002864, "INCLINATION": 74.0452, "RA_OF_ASC_NODE": 73.659, "ARG_OF_PERICENTER": 142.9554, "MEAN_ANOMALY": 243.9152, "EPHEMERIS_TYPE": 0, "CLASSIFICATION_TYPE": "U", "NORAD_CAT_ID": 34635, "ELEMENT_SET_NO": 999, "REV_AT_EPOCH": 73197, "BSTAR": 0.0020342, "MEAN_MOTION_DOT": 0.00011783, "MEAN_MOTION_DDOT": 0}, "tle": {"line1": "1 34635U 93036XG  25345.21609837  .00011783  00000+0  20342-2 0  9999", "line2": "2 34635  74.0452  73.6590 0028640 142.9554 243.9152 14.68232518731978"}}, "geometry": {"type": "Point", "coordinates": [-119.27234654910814, 37.38334242555434]}}, {"type": "Feature", "properties": {"norad_id": 34637, "name": "COSMOS 2251 DEB", "group": "cosmos-2251-debris", "lat": 10.249783657133936, "lon": 106.72658244870493, "alt_km": 728.0945966425561, "timestamp": "2025-12-11T08:58:27.520219+00:00", "meta": {"OBJECT_NAME": "COSMOS 2251 DEB", "OBJECT_ID": "1993-036XJ", "EPOCH": "2025-12-10T10:12:00.254016", "MEAN_MOTION": 14.60059536, "ECCENTRICITY": 0.00500389, "INCLINATION": 74.0498, "RA_OF_ASC_NODE": 105.5709, "ARG_OF_PERICENTER": 176.5552, "MEAN_ANOMALY": 248.648, "EPHEMERIS_TYPE": 0, "CLASSIFICATION_TYPE": "U", "NORAD_CAT_ID": 34637, "ELEMENT_SET_NO": 999, "REV_AT_EPOCH": 88493, "BSTAR": 0.0016776389, "MEAN_MOTION_DOT": 8.184e-05, "MEAN_MOTION_DDOT": 0}, "tle": {"line1": "1 34637U 93036XJ  25344.42500294  .00008184  00000+0  16776-2 0  9997", "line2": "2 34637  74.0498 105.5709 0050038 176.5552 248.6480 14.60059536884934"}}, "geometry": {"type": "Point", "coordinates": [106.72658244870493, 10.249783657133936]}}, {"type": "Feature", "properties": {"norad_id": 34641, "name": "COSMOS 2251 DEB", "group": "cosmos-2251-debris", "lat": 39.54652087368631, "lon": 98.10504653715904, "alt_km": 706.2330700920347, "timestamp": "2025-12-11T08:58:27.520230+00:00", "meta": {"OBJECT_NAME": "COSMOS 2251 DEB", "OBJECT_ID": "1993-036XN", "EPOCH": "2025-12-10T13:00:39.657024", "MEAN_MOTION": 14.51975276, "ECCENTRICITY": 0.0018107, "INCLINATION": 73.8386, "RA_OF_ASC_NODE": 85.8366, "ARG_OF_PERICENTER": 1.1742, "MEAN_ANOMALY": 14.0914, "EPHEMERIS_TYPE": 0, "CLASSIFICATION_TYPE": "U", "NORAD_CAT_ID": 34641, "ELEMENT_SET_NO": 999, "REV_AT_EPOCH": 88224, "BSTAR": 0.0017121, "MEAN_MOTION_DOT": 6.906e-05, "MEAN_MOTION_DDOT": 0}, "tle": {"line1": "1 34641U 93036XN  25344.54212566  .00006906  00000+0  17121-2 0  9992", "line2": "2 34641  73.8386  85.8366 0018107   1.1742  14.0914 14.51975276882243"}}, "geometry": {"type": "Point", "coordinates": [98.10504653715904, 39.54652087368631]}}, {"type": "Feature", "properties": {"norad_id": 34642, "name": "COSMOS 2251 DEB", "group": "cosmos-2251-debris", "lat": 23.47404188686881, "lon": -10.676788363371822, "alt_km": 1006.8381716648473, "timestamp": "2025-12-11T08:58:27.520241+00:00", "meta": {"OBJECT_NAME": "COSMOS 2251 DEB", "OBJECT_ID": "1993-036XP", "EPOCH": "2025-12-10T11:16:39.296928", "MEAN_MOTION": 13.98964055, "ECCENTRICITY": 0.02073989, "INCLINATION": 74.0053, "RA_OF_ASC_NODE": 343.733, "ARG_OF_PERICENTER": 164.1427, "MEAN_ANOMALY": 350.8698, "EPHEMERIS_TYPE": 0, "CLASSIFICATION_TYPE": "U", "NORAD_CAT_ID": 34642, "ELEMENT_SET_NO": 999, "REV_AT_EPOCH": 85261, "BSTAR": 0.0012238481, "MEAN_MOTION_DOT": 2.102e-05, "MEAN_MOTION_DDOT": 0}, "tle": {"line1": "1 34642U 93036XP  25344.46989927  .00002102  00000+0  12238-2 0  9994", "line2": "2 34642  74.0053 343.7330 0207398 164.1427 350.8698 13.98964055852618"}}, "geometry": {"type": "Point", "coordinates": [-10.676788363371822, 23.47404188686881]}}, {"type": "Feature", "properties": {"norad_id": 34671, "name": "COSMOS 2251 DEB", "group": "cosmos-2251-debris", "lat": 66.20643428257532, "lon": 177.4452824207545, "alt_km": 670.8191532311057, "timestamp": "2025-12-11T08:58:27.520251+00:00", "meta": {"OBJECT_NAME": "COSMOS 2251 DEB", "OBJECT_ID": "1993-036XR", "EPOCH": "2025-12-11T04:31:17.024736", "MEAN_MOTION": 14.66888464, "ECCENTRICITY": 0.0011537, "INCLINATION": 74.0269, "RA_OF_ASC_NODE": 137.2906, "ARG_OF_PERICENTER": 217.1966, "MEAN_ANOMALY": 315.6642, "EPHEMERIS_TYPE": 0, "CLASSIFICATION_TYPE": "U", "NORAD_CAT_ID": 34671, "ELEMENT_SET_NO": 999, "REV_AT_EPOCH": 88274, "BSTAR": 0.0028592, "MEAN_MOTION_DOT": 0.00016007, "MEAN_MOTION_DDOT": 0}, "tle": {"line1": "1 34671U 93036XR  25345.18839149  .00016007  00000+0  28592-2 0  9995", "line2": "2 34671  74.0269 137.2906 0011537 217.1966 315.6642 14.66888464882749"}}, "geometry": {"type": "Point", "coordinates": [177.4452824207545, 66.20643428257532]}}, {"type": "Feature", "properties": {"norad_id": 34672, "name": "COSMOS 2251 DEB", "group": "cosmos-2251-debris", "lat": 39.61347199734557, "lon": -38.19140627334979, "alt_km": 751.28024071053, "timestamp": "2025-12-11T08:58:27.520261+00:00", "meta": {"OBJECT_NAME": "COSMOS 2251 DEB", "OBJECT_ID": "1993-036XS", "EPOCH": "2025-12-08T07:33:35.281152", "MEAN_MOTION": 14.36398163, "ECCENTRICITY": 0.00235672, "INCLINATION": 74.0335, "RA_OF_ASC_NODE": 313.7193, "ARG_OF_PERICENTER": 26.7043, "MEAN_ANOMALY": 43.2667, "EPHEMERIS_TYPE": 0, "CLASSIFICATION_TYPE": "U", "NORAD_CAT_ID": 34672, "ELEMENT_SET_NO": 999, "REV_AT_EPOCH": 65114, "BSTAR": 0.00050497184, "MEAN_MOTION_DOT": 1.458e-05, "MEAN_MOTION_DDOT": 0}, "tle": {"line1": "1 34672U 93036XS  25342.31499168  .00001458  00000+0  50497-3 0  9995", "line2": "2 34672  74.0335 313.7193 0023567  26.7043  43.2667 14.36398163651147"}}, "geometry": {"type": "Point", "coordinates": [-38.19140627334979, 39.61347199734557]}}, {"type": "Feature", "properties": {"norad_id": 34678, "name": "COSMOS 2251 DEB", "group": "cosmos-2251-debris", "lat": -68.59798780748551, "lon": -124.9157392002372, "alt_km": 815.0744202169499, "timestamp": "2025-12-11T08:58:27.520272+00:00", "meta": {"OBJECT_NAME": "COSMOS 2251 DEB", "OBJECT_ID": "1993-036XY", "EPOCH": "2025-12-11T01:12:09.225792", "MEAN_MOTION": 14.30064588, "ECCENTRICITY": 0.002438, "INCLINATION": 74.0379, "RA_OF_ASC_NODE": 8.7649, "ARG_OF_PERICENTER": 58.4434, "MEAN_ANOMALY": 330.7261, "EPHEMERIS_TYPE": 0, "CLASSIFICATION_TYPE": "U", "NORAD_CAT_ID": 34678, "ELEMENT_SET_NO": 999, "REV_AT_EPOCH": 87355, "BSTAR": 4.0134e-05, "MEAN_MOTION_DOT": 7.8e-07, "MEAN_MOTION_DDOT": 0}, "tle": {"line1": "1 34678U 93036XY  25345.05010678  .00000078  00000+0  40134-4 0  9995", "line2": "2 34678  74.0379   8.7649 0024380  58.4434 330.7261 14.30064588873558"}}, "geometry": {"type": "Point", "coordinates": [-124.9157392002372, -68.59798780748551]}}, {"type": "Feature", "properties": {"norad_id": 34680, "name": "COSMOS 2251 DEB", "group": "cosmos-2251-debris", "lat": 26.31102695059998, "lon": 140.5987043565211, "alt_km": 694.4356841971885, "timestamp": "2025-12-11T08:58:27.520282+00:00", "meta": {"OBJECT_NAME": "COSMOS 2251 DEB", "OBJECT_ID": "1993-036YA", "EPOCH": "2025-12-11T02:49:08.154336", "MEAN_MOTION": 14.60592379, "ECCENTRICITY": 0.0006798, "INCLINATION": 74.0426, "RA_OF_ASC_NODE": 132.9545, "ARG_OF_PERICENTER": 229.501, "MEAN_ANOMALY": 250.0007, "EPHEMERIS_TYPE": 0, "CLASSIFICATION_TYPE": "U", "NORAD_CAT_ID": 34680, "ELEMENT_SET_NO": 999, "REV_AT_EPOCH": 88304, "BSTAR": 0.0018735, "MEAN_MOTION_DOT": 9.094e-05, "MEAN_MOTION_DDOT": 0}, "tle": {"line1": "1 34680U 93036YA  25345.11745549  .00009094  00000+0  18735-2 0  9994", "line2": "2 34680  74.0426 132.9545 0006798 229.5010 250.0007 14.60592379883047"}}, "geometry": {"type": "Point", "coordinates": [140.5987043565211, 26.31102695059998]}}, {"type": "Feature", "properties": {"norad_id": 34681, "name": "COSMOS 2251 DEB", "group": "cosmos-2251-debris", "lat": 33.18002092539559, "lon": 102.32761914333386, "alt_km": 633.2767797608085, "timestamp": "2025-12-11T08:58:27.520292+00:00", "meta": {"OBJECT_NAME": "COSMOS 2251 DEB", "OBJECT_ID": "1993-036YB", "EPOCH": "2025-12-10T15:17:37.078944", "MEAN_MOTION": 14.83133143, "ECCENTRICITY": 0.0025623, "INCLINATION": 74.0627, "RA_OF_ASC_NODE": 294.5519, "ARG_OF_PERICENTER": 351.5116, "MEAN_ANOMALY": 181.7753, "EPHEMERIS_TYPE": 0, "CLASSIFICATION_TYPE": "U", "NORAD_CAT_ID": 34681, "ELEMENT_SET_NO": 999, "REV_AT_EPOCH": 89239, "BSTAR": 0.0025772, "MEAN_MOTION_DOT": 0.00021167, "MEAN_MOTION_DDOT": 0}, "tle": {"line1": "1 34681U 93036YB  25344.63723471  .00021167  00000+0  25772-2 0  9995", "line2": "2 34681  74.0627 294.5519 0025623 351.5116 181.7753 14.83133143892399"}}, "geometry": {"type": "Point", "coordinates": [102.32761914333386, 33.18002092539559]}}]}